OBJECT_NAME,OBJECT_ID,EPOCH,MEAN_MOTION,ECCENTRICITY,INCLINATION,RA_OF_ASC_NODE,ARG_OF_PERICENTER,MEAN_ANOMALY,EPHEMERIS_TYPE,CLASSIFICATION_TYPE,NORAD_CAT_ID,ELEMENT_SET_NO,REV_AT_EPOCH,BSTAR,MEAN_MOTION_DOT,MEAN_MOTION_DDOT
STARLINK-31716,2024-062D,2026-05-20T06:09:39.777696,15.30204060,.00012852,53.1620,234.5920,96.7545,263.3602,0,U,59377,999,12126,-.48701346E-4,-.1801E-4,0
STARLINK-31710,2024-062E,2026-05-20T02:30:34.814304,15.30176210,.0000564,53.1654,284.0716,111.0556,249.0506,0,U,59378,999,12056,-.46524034E-4,-.1735E-4,0
STARLINK-31698,2024-062F,2026-05-20T02:10:47.980704,15.30200739,.00015496,53.1630,284.0025,97.5229,262.5948,0,U,59379,999,12056,-.3229184E-5,-.455E-5,0
STARLINK-31680,2024-062G,2026-05-19T22:00:57.968640,15.34385788,.00012107,53.1616,287.1645,108.7853,251.3282,0,U,59380,999,12050,.76159376E-4,.2197E-4,0
STARLINK-31713,2024-062H,2026-05-20T02:30:13.930560,15.34391442,.00006307,53.1607,286.2017,84.6803,275.4272,0,U,59381,999,12053,.32309661E-4,.716E-5,0
STARLINK-31705,2024-062J,2026-05-20T02:25:59.661408,15.30190529,.00011981,53.1594,284.0476,94.8788,265.2350,0,U,59382,999,12056,.4838343E-5,-.216E-5,0
STARLINK-31715,2024-062L,2026-05-19T19:45:27.948960,15.30192965,.00012414,53.1602,285.1596,82.2208,277.8933,0,U,59384,999,12056,.36414873E-4,.719E-5,0
STARLINK-31717,2024-062M,2026-05-19T09:25:04.617984,15.30190961,.00012298,53.1597,287.4426,99.6688,260.4452,0,U,59385,999,12048,.98680333E-4,.2564E-4,0
STARLINK-31688,2024-062N,2026-05-19T11:01:21.941472,15.34433378,.00011995,53.1609,289.2870,94.5132,265.6008,0,U,59386,999,12043,.4915094E-3,.16284E-3,0
STARLINK-31714,2024-062P,2026-05-20T04:17:02.205600,15.31048892,.00015197,53.1603,283.8174,22.2144,337.8923,0,U,59387,999,12056,.36300338E-2,.111685E-2,0
STARLINK-31643,2024-062Q,2026-05-20T02:35:06.516384,15.30192017,.00012843,53.1604,284.0859,92.1590,267.9558,0,U,59388,999,12060,.13542957E-4,.42E-6,0
STARLINK-31647,2024-062R,2026-05-20T02:51:49.824288,15.30193080,.00010242,53.1605,284.1947,102.3426,257.7690,0,U,59389,999,12060,.5902379E-4,.1389E-4,0
STARLINK-31649,2024-062S,2026-05-20T02:19:54.618816,15.30196634,.00010274,53.1595,284.0210,90.6287,269.4831,0,U,59390,999,12060,.46565625E-4,.102E-4,0
STARLINK-31644,2024-062T,2026-05-20T03:19:56.105184,15.30195271,.00011611,53.1608,286.4168,82.7962,277.3171,0,U,59391,999,12057,.25653419E-4,.401E-5,0
STARLINK-31626,2024-062U,2026-05-19T19:40:54.207840,15.30194309,.0001258,53.1602,285.1368,87.5047,272.6097,0,U,59392,999,12056,.5136249E-4,.1162E-4,0
STARLINK-31443,2024-062V,2026-05-20T07:40:15.785760,15.34401032,.00013795,53.1644,269.6080,93.1072,267.0089,0,U,59393,999,12082,.35212009E-4,.814E-5,0
STARLINK-31607,2024-062W,2026-05-19T18:15:58.053312,15.30195068,.0001265,53.1604,285.4797,85.3576,274.7569,0,U,59394,999,12054,.52168145E-4,.1186E-4,0
YAOGAN-42 01,2024-063A,2026-05-20T04:05:42.900288,15.23098763,.00032415,34.9992,302.0400,61.1578,298.9462,0,U,59395,999,11857,.30929027E-3,.7444E-4,0
STARLINK-31608,2024-062X,2026-05-19T17:24:27.911520,15.30187066,.00009644,53.1605,285.9655,80.7305,279.3805,0,U,59397,999,12049,.56675488E-4,.1319E-4,0
STARLINK-31534,2024-064A,2026-05-19T23:36:58.014720,15.27583941,.00014225,43.0043,13.1729,282.4278,77.6415,0,U,59398,999,12007,.13409509E-3,.343E-4,0
STARLINK-31544,2024-064B,2026-05-19T23:16:49.539648,15.27579701,.00009498,43.0043,13.9282,263.9206,96.1537,0,U,59399,999,12012,.11514957E-3,.2908E-4,0
STARLINK-31545,2024-064C,2026-05-19T22:19:28.461792,15.27578859,.00008567,43.0025,13.6255,266.7140,93.3613,0,U,59400,999,12012,.18474459E-4,.246E-5,0
STARLINK-31507,2024-064D,2026-05-19T22:28:43.541184,15.27571126,.0001246,43.0034,13.6688,265.5181,94.5529,0,U,59401,999,12006,.80991E-4,.1967E-4,0
STARLINK-31543,2024-064E,2026-05-20T00:39:53.078688,15.27575692,.00009944,43.0047,13.4980,268.5436,91.5301,0,U,59402,999,12013,.45185665E-4,.981E-5,0
STARLINK-31366,2024-064F,2026-05-19T16:28:45.281280,15.27582889,.00011287,43.0035,15.2397,284.0653,76.0074,0,U,59403,999,12008,.24359317E-3,.6447E-4,0
STARLINK-31374,2024-064G,2026-05-19T19:07:22.019232,15.27591488,.00026972,43.0094,323.5351,269.7279,90.3263,0,U,59404,999,12043,.16804893E-3,.4366E-4,0
STARLINK-31400,2024-064H,2026-05-19T22:08:21.738912,15.27583128,.000125,43.0025,13.5664,284.9701,75.1013,0,U,59405,999,12012,.16429E-3,.4262E-4,0
STARLINK-31391,2024-064J,2026-05-19T22:13:54.919776,15.27580036,.0001146,43.0007,13.5950,256.6282,103.4442,0,U,59406,999,12012,.96033E-4,.2381E-4,0
STARLINK-31387,2024-064K,2026-05-20T00:45:26.297568,15.27575436,.0001209,43.0035,13.5288,278.4713,81.6001,0,U,59407,999,12013,.55372979E-4,.1262E-4,0
STARLINK-31396,2024-064M,2026-05-19T22:30:48.720960,15.27584074,.00010526,43.0024,3.2956,274.5078,85.5653,0,U,59409,999,12018,.60154845E-4,.1394E-4,0
STARLINK-31412,2024-064N,2026-05-19T22:39:50.022144,15.27583336,.00004379,43.0006,13.7297,291.0324,69.0481,0,U,59410,999,12012,.61482043E-4,.1431E-4,0
STARLINK-31483,2024-064P,2026-05-19T22:56:29.069664,15.27588276,.0001192,43.0040,13.8161,296.3162,63.7568,0,U,59411,999,12012,.31012E-3,.8283E-4,0
STARLINK-31568,2024-064Q,2026-05-20T00:34:20.325504,15.27581519,.0001053,43.0028,13.4643,262.5339,97.5393,0,U,59412,999,12013,.75552742E-4,.1818E-4,0
STARLINK-31615,2024-064R,2026-05-19T22:50:26.575008,15.27589942,.00008492,43.0033,6.8457,273.4923,86.5831,0,U,59413,999,12020,.7098906E-4,.1693E-4,0
STARLINK-31457,2024-064S,2026-05-19T22:54:09.523296,15.27582802,.00015356,43.0046,6.8573,262.6206,97.4471,0,U,59414,999,12020,.60112805E-4,.1392E-4,0
STARLINK-31398,2024-064T,2026-05-19T22:34:16.710816,15.27558796,.000148,43.0007,13.6953,274.4334,85.6348,0,U,59415,999,12012,-.51133E-4,-.1668E-4,0
STARLINK-31399,2024-064U,2026-05-19T22:25:01.159680,15.27569574,.000038,43.0025,13.6472,279.7325,80.3484,0,U,59416,999,12012,-.45968E-4,-.1526E-4,0
STARLINK-31401,2024-064V,2026-05-19T22:44:54.862080,15.27570316,.00011904,43.0053,6.8303,261.5729,98.4988,0,U,59417,999,11995,.11985983E-3,.3037E-4,0
STARLINK-31414,2024-064W,2026-05-19T22:50:56.745024,15.27562525,.0000802,43.0072,13.7884,272.2997,87.7763,0,U,59418,999,12012,-.14548E-4,-.662E-5,0
STARLINK-31415,2024-064X,2026-05-19T21:53:46.423968,15.27588168,.0001807,43.0042,14.3542,264.6531,95.4115,0,U,59419,999,12011,.25195E-3,.6679E-4,0
STARLINK-31466,2024-064Y,2026-05-19T23:22:23.861856,15.27545971,.00009689,43.0069,13.9497,311.4557,48.6211,0,U,59420,999,12012,.23179217E-3,.6115E-4,0
STARLINK-11087 [DTC],2024-065A,2026-05-20T03:24:26.108640,15.69717740,.00015422,53.1587,101.7860,70.7086,289.4099,0,U,59421,999,12273,.24667292E-4,.2401E-4,0
STARLINK-11090 [DTC],2024-065B,2026-05-20T01:31:33.302496,15.69711900,.00013702,53.1594,102.0035,94.3094,265.8081,0,U,59422,999,12274,.18712488E-4,.1679E-4,0
STARLINK-11093 [DTC],2024-065C,2026-05-20T01:38:39.735744,15.69682863,.00013686,53.1595,102.0350,106.4244,253.6925,0,U,59423,999,12273,-.28157076E-4,-.3995E-4,0
STARLINK-11083 [DTC],2024-065D,2026-05-20T03:17:21.864768,15.69714041,.00012037,53.1587,101.7521,90.1639,269.9517,0,U,59424,999,12269,.22003308E-4,.2078E-4,0
STARLINK-11085 [DTC],2024-065E,2026-05-20T01:24:29.708352,15.69686245,.0000934,53.1596,101.9716,112.1533,247.9584,0,U,59425,999,12268,.66809879E-4,.7505E-4,0
STARLINK-11089 [DTC],2024-065F,2026-05-20T03:31:29.757216,15.69715450,.00013388,53.1591,101.8326,95.7652,264.3519,0,U,59426,999,12274,.7126451E-5,.275E-5,0
STARLINK-31757,2024-065G,2026-05-20T04:01:42.245184,15.30200318,.00013664,53.1598,309.6338,89.4086,270.7071,0,U,59427,999,11987,.7280563E-4,.1798E-4,0
STARLINK-31773,2024-065J,2026-05-19T21:18:54.076896,15.30191801,.000118,53.1605,312.8545,83.4991,276.6144,0,U,59429,999,11980,.47276E-4,.1041E-4,0
STARLINK-31772,2024-065K,2026-05-19T22:56:45.228192,15.30185560,.00012779,53.1625,310.4318,88.9838,271.1309,0,U,59430,999,11984,.1247124E-3,.3335E-4,0
STARLINK-31613,2024-065L,2026-05-20T03:57:09.019872,15.30195460,.00011637,53.1606,309.6044,91.5321,268.5813,0,U,59431,999,11987,.40092291E-4,.828E-5,0
STARLINK-31780,2024-065M,2026-05-20T04:07:47.176320,15.30193928,.00010996,53.1585,309.6465,100.1346,259.9779,0,U,59432,999,11987,.26866057E-4,.437E-5,0
STARLINK-31740,2024-065N,2026-05-20T05:06:07.270560,15.30189907,.00011596,53.1594,311.3247,104.1561,255.9569,0,U,59433,999,11985,-.36149249E-4,-.1429E-4,0
STARLINK-31580,2024-065P,2026-05-19T18:19:54.972480,15.30192626,.00012695,53.1603,313.4998,89.6056,270.5091,0,U,59434,999,11978,.198645E-4,.229E-5,0
STARLINK-31696,2024-065Q,2026-05-20T03:52:35.331456,15.30199325,.00010622,53.1595,309.5832,84.8368,275.2754,0,U,59435,999,11987,.79984761E-4,.201E-4,0
STARLINK-31700,2024-065R,2026-05-19T23:01:19.447968,15.30168396,.00014213,53.1601,310.4523,75.6283,284.4876,0,U,59436,999,11984,.27415531E-3,.7761E-4,0
STARLINK-31706,2024-065S,2026-05-19T22:51:25.994016,15.30200658,.00014142,53.1598,312.5504,87.7646,272.3517,0,U,59437,999,11981,.38551036E-4,.783E-5,0
STARLINK-31711,2024-065T,2026-05-19T19:57:45.893088,15.30194380,.00011861,53.1604,311.0782,83.7308,276.3828,0,U,59438,999,11982,.43328014E-4,.924E-5,0
STARLINK-31708,2024-065U,2026-05-19T21:18:08.164800,15.30194477,.0000975,53.1601,310.7153,95.6529,264.4583,0,U,59439,999,11983,.92012E-4,.2367E-4,0
STARLINK-31693,2024-065W,2026-05-20T04:10:49.326528,15.30194037,.00010865,53.1600,309.6579,98.4530,261.6594,0,U,59441,999,11987,.13337953E-4,.36E-6,0
TSAT-1A,2024-066A,2026-05-20T01:26:49.496640,15.35036743,.00123446,45.6163,274.1980,304.1263,55.8461,0,U,59442,999,11745,.27469643E-3,.922E-4,0
HAWK-8A,2024-066B,2026-05-20T01:19:38.380512,14.99027305,.00039094,45.5958,62.0679,267.0137,93.0297,0,U,59443,999,11561,.24353936E-3,.2767E-4,0
CAPELLA-14 (ACADIA-4),2024-066C,2026-05-20T03:03:58.788000,15.12977161,.00059728,45.6046,43.3570,160.1014,200.0107,0,U,59444,999,10823,.72194956E-3,.12707E-3,0
HAWK-8B,2024-066D,2026-05-19T23:44:17.493504,14.99026281,.0004002,45.6209,64.2616,270.9804,89.0619,0,U,59445,999,11559,.80874385E-4,.764E-5,0
